ONEWEB-0578             
1 56067U 23043X   26193.53662655  .00000098  00000+0  20596-3 0  9996
2 56067  87.9240 238.9285 0002169  87.3955 272.7428 13.21826173161585
ONEWEB-0579             
1 56068U 23043Y   26193.60388888  .00000059  00000+0  11252-3 0  9994
2 56068  87.9259 238.9115 0002167 106.9274 253.2097 13.21827464161601
ONEWEB-0581             
1 56069U 23043Z   26193.53324777  .00000151  00000+0  36102-3 0  9998
2 56069  87.9076 223.7499 0001500  88.3111 271.8192 13.16595240162295
ONEWEB-0609             
1 56070U 23043AA  26193.50846894 -.00000079  00000+0 -24433-3 0  9991
2 56070  87.8984 254.1659 0002153  97.8282 262.3093 13.15547120159765
ONEWEB-0613             
1 56071U 23043AB  26193.58215329 -.00000114  00000+0 -33782-3 0  9990
2 56071  87.8981 254.1644 0002201 104.0126 256.1249 13.15547874159770
ONEWEB-0630             
1 56072U 23043AC  26193.12105303 -.00000015  00000+0 -73929-4 0  9999
2 56072  87.8986 254.2292 0002194 104.5010 255.6364 13.15550028159704
ONEWEB-0632             
1 56073U 23043AD  26193.57265094 -.00000065  00000+0 -20594-3 0  9997
2 56073  87.8988 254.1556 0001863  98.1101 262.0240 13.15548049159761
ONEWEB-0633             
1 56074U 23043AE  26193.56631316 -.00000044  00000+0 -15055-3 0  9994
2 56074  87.8990 254.1353 0002277 102.6043 257.5342 13.15548376159749
ONEWEB-0634             
1 56075U 23043AF  26193.55205409  .00000129  00000+0  30882-3 0  9991
2 56075  87.8990 254.1750 0002352  91.8735 268.2665 13.15547770159735
ONEWEB-0635             
1 56076U 23043AG  26193.54729481  .00000353  00000+0  90382-3 0  9992
2 56076  87.8995 254.1412 0001765 101.7428 258.3900 13.15549519159761
ONEWEB-0636             
1 56077U 23043AH  26193.53936943  .00000068  00000+0  14666-3 0  9999
2 56077  87.8991 254.1495 0001939 109.0575 251.0765 13.15546532159745
ONEWEB-0637             
1 56078U 23043AJ  26193.53303548  .00000054  00000+0  10820-3 0  9992
2 56078  87.8983 254.1652 0001979  89.8866 270.2491 13.15547656159763
ONEWEB-0647             
1 56079U 23043AK  26193.52828129  .00000022  00000+0  25105-4 0  9997
2 56079  87.8984 254.1784 0001941  99.8662 260.2688 13.15548367159751
ONEWEB-0651             
1 56080U 23043AL  26193.59958807  .00000113  00000+0  26645-3 0  9993
2 56080  87.8984 254.1572 0001869  93.2470 266.8874 13.15547997160964
ONEWEB-0718             
1 56081U 23043AM  26193.13848647  .00000067  00000+0  14330-3 0  9990
2 56081  87.8984 254.2296 0002586  94.8069 265.3357 13.15549609159710
ONEWEB-0561             
1 56710U 23068A   26193.57618853  .00000040  00000+0  65742-4 0  9993
2 56710  87.9179 269.3859 0002034  87.2641 272.8726 13.20768319152856
ONEWEB-0668             
1 56711U 23068B   26193.58391296  .00000021  00000+0  22426-4 0  9995
2 56711  87.9076 223.7283 0002350  82.6712 277.4686 13.16595039155128
ONEWEB-0676             
1 56712U 23068C   26193.59183582  .00000014  00000+0  29783-5 0  9990
2 56712  87.9075 223.7334 0001725  93.9054 266.2275 13.16594233155040
ONEWEB-0677             
1 56713U 23068D   26192.73109570 -.00000041  00000+0 -13244-3 0  9996
2 56713  87.9189 269.5444 0001913  89.6842 270.4510 13.20771475153040
ONEWEB-0678             
1 56714U 23068E   26193.56314343  .00000000  00000+0 -35195-4 0  9999
2 56714  87.8997 254.1396 0001999 105.8668 254.2682 13.15547624152628
ONEWEB-0679             
1 56715U 23068F   26193.55066562  .00000111  00000+0  25800-3 0  9999
2 56715  87.9091 223.7305 0002063  77.4994 282.6368 13.16594282155066
ONEWEB-0680             
1 56716U 23068G   26193.52988071  .00000200  00000+0  45306-3 0  9997
2 56716  87.9247 238.9293 0002365  82.5102 277.6300 13.21826260154448
ONEWEB-0681             
1 56717U 23068H   26193.51053452  .00000087  00000+0  17832-3 0  9999
2 56717  87.9241 238.9337 0001098  86.6321 273.4939 13.21828211154431
ONEWEB-0682             
1 56718U 23068J   26193.58691277 -.00000080  00000+0 -24549-3 0  9998
2 56718  87.8985 254.1361 0002247  85.7223 274.4164 13.15548101152799
ONEWEB-0683             
1 56719U 23068K   26193.53462110  .00000028  00000+0  40002-4 0  9999
2 56719  87.8999 254.1453 0002189  96.5480 263.5899 13.15547178152750
ONEWEB-0684             
1 56720U 23068L   26193.54253880  .00000233  00000+0  58568-3 0  9997
2 56720  87.8990 254.1354 0003463 135.7006 224.4402 13.15550361152584
ONEWEB-0686             
1 56721U 23068M   26193.58708525  .00000034  00000+0  54369-4 0  9998
2 56721  87.9068 223.7461 0002425  94.0298 266.1110 13.16593884155052
ONEWEB-0694             
1 56722U 23068N   26193.59341752  .00000000  00000+0 -33212-4 0  9993
2 56722  87.9088 223.7147 0002297  84.7662 275.3731 13.16593326155113
ONEWEB-0696             
1 56723U 23068P   26193.11946884 -.00000104  00000+0 -31054-3 0  9996
2 56723  87.8988 254.2542 0001990 111.2859 248.8484 13.15549373152640
ONEWEB-0703             
1 56724U 23068Q   26193.58531926 -.00000089  00000+0 -26946-3 0  9991
2 56724  87.8983 254.1426 0001632 122.9911 237.1377 13.15547761152592
