OBJECT_NAME,OBJECT_ID,EPOCH,MEAN_MOTION,ECCENTRICITY,INCLINATION,RA_OF_ASC_NODE,ARG_OF_PERICENTER,MEAN_ANOMALY,EPHEMERIS_TYPE,CLASSIFICATION_TYPE,NORAD_CAT_ID,ELEMENT_SET_NO,REV_AT_EPOCH,BSTAR,MEAN_MOTION_DOT,MEAN_MOTION_DDOT
ONEWEB-0578,2023-043X,2026-07-12T12:52:44.533920,13.21826173,.00021694,87.9240,238.9285,87.3955,272.7428,0,U,56067,999,16158,.20595733E-3,.98E-6,0
ONEWEB-0579,2023-043Y,2026-07-12T14:29:35.999232,13.21827464,.00021676,87.9259,238.9115,106.9274,253.2097,0,U,56068,999,16160,.11251975E-3,.59E-6,0
ONEWEB-0581,2023-043Z,2026-07-12T12:47:52.607328,13.16595240,.00015008,87.9076,223.7499,88.3111,271.8192,0,U,56069,999,16229,.3610213E-3,.151E-5,0
ONEWEB-0609,2023-043AA,2026-07-12T12:12:11.716416,13.15547120,.00021539,87.8984,254.1659,97.8282,262.3093,0,U,56070,999,15976,-.24432999E-3,-.79E-6,0
ONEWEB-0613,2023-043AB,2026-07-12T13:58:18.044256,13.15547874,.00022016,87.8981,254.1644,104.0126,256.1249,0,U,56071,999,15977,-.33782279E-3,-.114E-5,0
ONEWEB-0630,2023-043AC,2026-07-12T02:54:18.981792,13.15550028,.00021944,87.8986,254.2292,104.5010,255.6364,0,U,56072,999,15970,-.73929014E-4,-.15E-6,0
ONEWEB-0632,2023-043AD,2026-07-12T13:44:37.041216,13.15548049,.00018636,87.8988,254.1556,98.1101,262.0240,0,U,56073,999,15976,-.20594306E-3,-.65E-6,0
ONEWEB-0633,2023-043AE,2026-07-12T13:35:29.457024,13.15548376,.00022771,87.8990,254.1353,102.6043,257.5342,0,U,56074,999,15974,-.15054651E-3,-.44E-6,0
ONEWEB-0634,2023-043AF,2026-07-12T13:14:57.473376,13.15547770,.00023525,87.8990,254.1750,91.8735,268.2665,0,U,56075,999,15973,.30881906E-3,.129E-5,0
ONEWEB-0635,2023-043AG,2026-07-12T13:08:06.271584,13.15549519,.00017654,87.8995,254.1412,101.7428,258.3900,0,U,56076,999,15976,.90381926E-3,.353E-5,0
ONEWEB-0636,2023-043AH,2026-07-12T12:56:41.518752,13.15546532,.00019394,87.8991,254.1495,109.0575,251.0765,0,U,56077,999,15974,.1466601E-3,.68E-6,0
ONEWEB-0637,2023-043AJ,2026-07-12T12:47:34.265472,13.15547656,.00019792,87.8983,254.1652,89.8866,270.2491,0,U,56078,999,15976,.10820088E-3,.54E-6,0
ONEWEB-0647,2023-043AK,2026-07-12T12:40:43.503456,13.15548367,.0001941,87.8984,254.1784,99.8662,260.2688,0,U,56079,999,15975,.25105211E-4,.22E-6,0
ONEWEB-0651,2023-043AL,2026-07-12T14:23:24.409248,13.15547997,.00018696,87.8984,254.1572,93.2470,266.8874,0,U,56080,999,16096,.26644598E-3,.113E-5,0
ONEWEB-0718,2023-043AM,2026-07-12T03:19:25.231008,13.15549609,.00025868,87.8984,254.2296,94.8069,265.3357,0,U,56081,999,15971,.14329777E-3,.67E-6,0
ONEWEB-0561,2023-068A,2026-07-12T13:49:42.688992,13.20768319,.00020346,87.9179,269.3859,87.2641,272.8726,0,U,56710,999,15285,.65741948E-4,.4E-6,0
ONEWEB-0668,2023-068B,2026-07-12T14:00:50.079744,13.16595039,.000235,87.9076,223.7283,82.6712,277.4686,0,U,56711,999,15512,.22425517E-4,.21E-6,0
ONEWEB-0676,2023-068C,2026-07-12T14:12:14.614848,13.16594233,.0001725,87.9075,223.7334,93.9054,266.2275,0,U,56712,999,15504,.2978305E-5,.14E-6,0
ONEWEB-0677,2023-068D,2026-07-11T17:32:46.668480,13.20771475,.00019131,87.9189,269.5444,89.6842,270.4510,0,U,56713,999,15304,-.13243703E-3,-.41E-6,0
ONEWEB-0678,2023-068E,2026-07-12T13:30:55.592352,13.15547624,.00019993,87.8997,254.1396,105.8668,254.2682,0,U,56714,999,15262,-.35195393E-4,0,0
ONEWEB-0679,2023-068F,2026-07-12T13:12:57.509568,13.16594282,.0002063,87.9091,223.7305,77.4994,282.6368,0,U,56715,999,15506,.25799784E-3,.111E-5,0
ONEWEB-0680,2023-068G,2026-07-12T12:43:01.693344,13.21826260,.00023659,87.9247,238.9293,82.5102,277.6300,0,U,56716,999,15444,.45306238E-3,.2E-5,0
ONEWEB-0681,2023-068H,2026-07-12T12:15:10.182528,13.21828211,.00010985,87.9241,238.9337,86.6321,273.4939,0,U,56717,999,15443,.17832304E-3,.87E-6,0
ONEWEB-0682,2023-068J,2026-07-12T14:05:09.263328,13.15548101,.00022474,87.8985,254.1361,85.7223,274.4164,0,U,56718,999,15279,-.24549344E-3,-.8E-6,0
ONEWEB-0683,2023-068K,2026-07-12T12:49:51.263040,13.15547178,.00021892,87.8999,254.1453,96.5480,263.5899,0,U,56719,999,15275,.40002268E-4,.28E-6,0
ONEWEB-0684,2023-068L,2026-07-12T13:01:15.352320,13.15550361,.00034635,87.8990,254.1354,135.7006,224.4402,0,U,56720,999,15258,.58567916E-3,.233E-5,0
ONEWEB-0686,2023-068M,2026-07-12T14:05:24.165600,13.16593884,.00024258,87.9068,223.7461,94.0298,266.1110,0,U,56721,999,15505,.54368724E-4,.34E-6,0
ONEWEB-0694,2023-068N,2026-07-12T14:14:31.273728,13.16593326,.00022976,87.9088,223.7147,84.7662,275.3731,0,U,56722,999,15511,-.33212184E-4,0,0
ONEWEB-0696,2023-068P,2026-07-12T02:52:02.107776,13.15549373,.00019903,87.8988,254.2542,111.2859,248.8484,0,U,56723,999,15264,-.31053527E-3,-.104E-5,0
ONEWEB-0703,2023-068Q,2026-07-12T14:02:51.584064,13.15547761,.00016329,87.8983,254.1426,122.9911,237.1377,0,U,56724,999,15259,-.26945643E-3,-.89E-6,0
